NORAD_CAT_ID,OBJECT_NAME,OBJECT_TYPE,EPOCH,MEAN_MOTION,ECCENTRICITY,INCLINATION,RA_OF_ASC_NODE,ARG_OF_PERICENTER,MEAN_ANOMALY,BSTAR,MEAN_MOTION_DOT,MEAN_MOTION_DDOT,TLE_LINE0,TLE_LINE1,TLE_LINE2,SEMIMAJOR_AXIS,PERIOD,APOGEE,PERIGEE,DECAYED
49161.0,STARLINK-3080,PAYLOAD,2022-05-25 06:00:00,14.98340547,0.0003092,70.0013,185.1089,268.63,278.6686,-0.0034042,-0.00040489,0.0,0 STARLINK-3080,1 49161U 21082AH  22145.25001157 -.00040489  00000-0 -34042-2 0  9991,2 49161  70.0013 185.1089 0003092 268.6300 278.6686 14.98340547 39678,6950.16,96.106,574.174,569.876,0.0
49161.0,STARLINK-3080,PAYLOAD,2022-05-25 14:00:01,14.98308287,0.0003064,70.0009,184.2684,274.3135,270.463,0.0024533,0.00029286,0.0,0 STARLINK-3080,1 49161U 21082AH  22145.58334491  .00029286  00000-0  24533-2 0  9991,2 49161  70.0009 184.2684 0003064 274.3135 270.4630 14.98308287  1306,6950.26,96.108,574.255,569.995,0.0
49161.0,STARLINK-3080,PAYLOAD,2022-05-25 22:00:00,14.98293427,0.0003055,70.0008,183.4281,267.9482,274.3092,0.0045042,0.00054016,0.0,0 STARLINK-3080,1 49161U 21082AH  22145.91667824  .00054016  00000-0  45042-2 0  9994,2 49161  70.0008 183.4281 0003055 267.9482 274.3092 14.98293427 39778,6950.306,96.109,574.294,570.048,0.0
49161.0,STARLINK-3080,PAYLOAD,2022-05-26 11:36:34,14.98327526,0.0003117,69.9989,181.9977,270.3081,89.7721,3.2956e-05,3e-06,0.0,0 STARLINK-3080,1 49161U 21082AH  22146.48373721  .00000300  00000-0  32956-4 0  9996,2 49161  69.9989 181.9977 0003117 270.3081  89.7721 14.98327526 39865,6950.201,96.107,574.232,569.899,0.0
49161.0,STARLINK-3080,PAYLOAD,2022-05-26 14:00:01,14.98321292,0.0003094,70.0006,181.7471,273.7076,263.4971,0.0019147,0.00022822,0.0,0 STARLINK-3080,1 49161U 21082AH  22146.58334491  .00022822  00000-0  19147-2 0  9996,2 49161  70.0006 181.7471 0003094 273.7076 263.4971 14.98321292 39873,6950.22,96.108,574.235,569.934,0.0
49161.0,STARLINK-3080,PAYLOAD,2022-05-26 22:00:00,14.98299677,0.0003113,70.0005,180.9067,267.2311,267.4651,0.0047799,0.00057364,0.0,0 STARLINK-3080,1 49161U 21082AH  22146.91667824  .00057364  00000-0  47799-2 0  9995,2 49161  70.0005 180.9067 0003113 267.2311 267.4651 14.98299677  1303,6950.2869999999975,96.109,574.315,569.988,0.0
49161.0,STARLINK-3080,PAYLOAD,2022-05-27 04:00:00,14.98353187,0.0003121,70.0007,180.2763,266.5238,176.2645,-0.0020016,-0.00023909,0.0,0 STARLINK-3080,1 49161U 21082AH  22147.16667824 -.00023909  00000-0 -20016-2 0  9996,2 49161  70.0007 180.2763 0003121 266.5238 176.2645 14.98353187 39960,6950.121,96.106,574.155,569.817,0.0
49161.0,STARLINK-3080,PAYLOAD,2022-05-27 14:00:01,14.98329845,0.0003168999999999,70.0002,179.2257,272.8307,256.8291,0.0014218,0.00016913,0.0,0 STARLINK-3080,1 49161U 21082AH  22147.58334491  .00016913  00000-0  14218-2 0  9995,2 49161  70.0002 179.2257 0003169 272.8307 256.8291 14.98329845  1303,6950.193,96.107,574.261,569.856,0.0
49161.0,STARLINK-3080,PAYLOAD,2022-05-27 22:00:01,14.98304622,0.0003202,70.0001,178.3852,266.6034,260.6193,0.0051486,0.00061844,0.0,0 STARLINK-3080,1 49161U 21082AH  22147.91668981  .00061844  00000-0  51486-2 0  9997,2 49161  70.0001 178.3852 0003202 266.6034 260.6193 14.98304622  1309,6950.271,96.109,574.362,569.911,0.0
49161.0,STARLINK-3080,PAYLOAD,2022-05-28 06:00:02,14.98361995,0.0003213,70.0006,177.5511,268.1561,256.5425,-0.0029584,-0.00035245,0.0,0 STARLINK-3080,1 49161U 21082AH  22148.25002315 -.00035245  00000-0 -29584-2 0  9990,2 49161  70.0006 177.5511 0003213 268.1561 256.5425 14.98361995 40122,6950.094,96.105,574.192,569.726,0.0
49161.0,STARLINK-3080,PAYLOAD,2022-05-28 14:00:01,14.98313482,0.0003123,69.9998,176.7042,273.1037,248.9351,0.0027492,0.0003285,0.0,0 STARLINK-3080,1 49161U 21082AH  22148.58334491  .00032850  00000-0  27492-2 0  9992,2 49161  69.9998 176.7042 0003123 273.1037 248.9351 14.98313482 40179,6950.244000000002,96.108,574.28,569.938,0.0
49161.0,STARLINK-3080,PAYLOAD,2022-05-28 19:41:18,14.98320925,0.0002938,69.999,176.107,270.3321,89.7501,-1.8853e-05,-3.18e-06,0.0,0 STARLINK-3080,1 49161U 21082AH  22148.82035176 -.00000318  00000-0 -18853-4 0  9996,2 49161  69.9990 176.1070 0002938 270.3321  89.7501 14.98320925 40217,6950.221,96.108,574.128,570.044,0.0
49161.0,STARLINK-3080,PAYLOAD,2022-05-29 03:41:58,14.98326364,0.0003204,69.9991,175.2655,270.7843,89.2949,-5.1566e-06,-1.55e-06,0.0,0 STARLINK-3080,1 49161U 21082AH  22149.15414841 -.00000155  00000-0 -51566-5 0  9991,2 49161  69.9991 175.2655 0003204 270.7843  89.2949 14.98326364 40266,6950.204000000002,96.107,574.2959999999998,569.842,0.0
49161.0,STARLINK-3080,PAYLOAD,2022-05-29 14:00:01,14.98337429,0.0003185,69.9995,174.183,273.1708,241.322,0.0002665,3.089e-05,0.0,0 STARLINK-3080,1 49161U 21082AH  22149.58334491  .00003089  00000-0  26650-3 0  9991,2 49161  69.9995 174.1830 0003185 273.1708 241.3220 14.98337429  1307,6950.17,96.107,574.249,569.821,0.0
49161.0,STARLINK-3080,PAYLOAD,2022-05-29 22:00:00,14.98304066,0.0003205,69.9995,173.3427,267.1449,244.8503,0.0054067,0.00064978,0.0,0 STARLINK-3080,1 49161U 21082AH  22149.91667824  .00064978  00000-0  54067-2 0  9993,2 49161  69.9995 173.3427 0003205 267.1449 244.8503 14.98304066  1301,6950.273,96.109,574.366,569.911,0.0
49161.0,STARLINK-3080,PAYLOAD,2022-05-30 06:00:00,14.98357578,0.0003215,69.9997,172.5023,269.3904,240.0841,-0.003124,-0.00037198,0.0,0 STARLINK-3080,1 49161U 21082AH  22150.25001157 -.00037198  00000-0 -31240-2 0  9997,2 49161  69.9997 172.5023 0003215 269.3904 240.0841 14.98357578 40422,6950.108,96.105,574.207,569.738,0.0
49161.0,STARLINK-3080,PAYLOAD,2022-05-30 14:00:01,14.98346315,0.0003154,69.9992,171.6618,273.6451,233.3252,-0.00057909,-6.999e-05,0.0,0 STARLINK-3080,1 49161U 21082AH  22150.58334491 -.00006999  00000-0 -57909-3 0  9999,2 49161  69.9992 171.6618 0003154 273.6451 233.3252 14.98346315  1306,6950.142,96.106,574.2,569.815,0.0
49161.0,STARLINK-3080,PAYLOAD,2022-05-30 22:00:00,14.98308316,0.0003153,69.9993,170.8215,267.3122,237.1672,0.0053098999999999,0.00063809,0.0,0 STARLINK-3080,1 49161U 21082AH  22150.91667824  .00063809  00000-0  53099-2 0  9991,2 49161  69.9993 170.8215 0003153 267.3122 237.1672 14.98308316 40529,6950.26,96.108,574.316,569.934,0.0
49161.0,STARLINK-3080,PAYLOAD,2022-05-31 06:00:02,14.9835687,0.0003164,69.9995,169.981,270.0605,231.9651,-0.0027484,-0.00032757,0.0,0 STARLINK-3080,1 49161U 21082AH  22151.25002315 -.00032757  00000-0 -27484-2 0  9996,2 49161  69.9995 169.9810 0003164 270.0605 231.9651 14.98356870  1300,6950.11,96.105,574.174,569.776,0.0
49161.0,STARLINK-3080,PAYLOAD,2022-05-31 14:00:01,14.98352456,0.0003113,69.999,169.1404,273.9088,225.5512,-0.0013212,-0.00015831,0.0,0 STARLINK-3080,1 49161U 21082AH  22151.58334491 -.00015831  00000-0 -13212-2 0  9993,2 49161  69.9990 169.1404 0003113 273.9088 225.5512 14.98352456 40626,6950.123000000001,96.106,574.1519999999998,569.825,0.0
49161.0,STARLINK-3080,PAYLOAD,2022-05-31 22:00:00,14.98311888,0.0003125,69.9992,168.3,267.0939,229.8798,0.0052699,0.00063329,0.0,0 STARLINK-3080,1 49161U 21082AH  22151.91667824  .00063329  00000-0  52699-2 0  9994,2 49161  69.9992 168.3000 0003125 267.0939 229.8798 14.98311888  1302,6950.249,96.108,574.286,569.942,0.0
49161.0,STARLINK-3080,PAYLOAD,2022-06-01 14:00:01,14.98358194,0.0003119,69.9991,166.6189,273.2566,218.7056,-0.0018373,-0.00021963,0.0,0 STARLINK-3080,1 49161U 21082AH  22152.58334491 -.00021963  00000-0 -18373-2 0  9990,2 49161  69.9991 166.6189 0003119 273.2566 218.7056 14.98358194 40777,6950.106,96.105,574.138,569.803,0.0
49161.0,STARLINK-3080,PAYLOAD,2022-06-01 20:00:01,14.98321461,0.0003102,69.9993,165.9885,267.4145,132.6897,0.0029322,0.00035062,0.0,0 STARLINK-3080,1 49161U 21082AH  22152.83334491  .00035062  00000-0  29322-2 0  9997,2 49161  69.9993 165.9885 0003102 267.4145 132.6897 14.98321461  1304,6950.219,96.108,574.24,569.928,0.0
49161.0,STARLINK-3080,PAYLOAD,2022-06-02 18:15:13,14.98330346,0.000308,69.9987,163.6507,268.7779,91.3027,-8.4255e-05,-1.098e-05,0.0,0 STARLINK-3080,1 49161U 21082AH  22153.76057077 -.00001098  00000-0 -84255-4 0  9994,2 49161  69.9987 163.6507 0003080 268.7779  91.3027 14.98330346 40957,6950.191999999999,96.107,574.197,569.9159999999998,0.0
49161.0,STARLINK-3080,PAYLOAD,2022-06-03 03:52:00,14.9833799,0.000363,69.9988,162.6413,268.6545,91.4198,-2.036e-05,-3.36e-06,0.0,0 STARLINK-3080,1 49161U 21082AH  22154.16112056 -.00000336  00000-0 -20360-4 0  9999,2 49161  69.9988 162.6413 0003630 268.6545  91.4198 14.98337990 41014,6950.168000000002,96.106,574.556,569.51,0.0
49161.0,STARLINK-3080,PAYLOAD,2022-06-03 10:16:32,14.98342597,0.0003446,69.9984,161.9686,269.9601,90.1163,2.8353e-05,2.45e-06,0.0,0 STARLINK-3080,1 49161U 21082AH  22154.42815528  .00000245  00000-0  28353-4 0  9999,2 49161  69.9984 161.9686 0003446 269.9601  90.1163 14.98342597 41057,6950.154,96.106,574.414,569.624,0.0
49161.0,STARLINK-3080,PAYLOAD,2022-06-04 03:54:01,14.98332831,0.0003421,69.9985,160.1167,269.6491,90.4276,-6.379399999999999e-05,-8.54e-06,0.0,0 STARLINK-3080,1 49161U 21082AH  22155.16252016 -.00000854  00000-0 -63794-4 0  9994,2 49161  69.9985 160.1167 0003421 269.6491  90.4276 14.98332831 41160,6950.184,96.107,574.427,569.6709999999998,0.0
49161.0,STARLINK-3080,PAYLOAD,2022-06-04 10:18:34,14.98325019,0.0003359,69.9986,159.4431,269.467,90.6104,-0.00014467,-1.819e-05,0.0,0 STARLINK-3080,1 49161U 21082AH  22155.42956756 -.00001819  00000-0 -14467-3 0  9999,2 49161  69.9986 159.4431 0003359 269.4670  90.6104 14.98325019 41200,6950.208000000001,96.107,574.408,569.739,0.0
49161.0,STARLINK-3080,PAYLOAD,2022-06-05 22:00:00,14.98290226,0.0003478999999999,70.0003,155.6935,268.4016,190.7971,0.0044695,0.00053592,0.0,0 STARLINK-3080,1 49161U 21082AH  22156.91667824  .00053592  00000-0  44695-2 0  9997,2 49161  70.0003 155.6935 0003479 268.4016 190.7971 14.98290226 41425,6950.316,96.11,574.599,569.763,0.0
